STARLINK-30425          
1 57850U 23141L   25044.93628510 -.00002537  00000+0 -73461-4 0  9998
2 57850  53.1596 289.9238 0001784 127.1506 232.9658 15.30240348 80800
STARLINK-30405          
1 57851U 23141M   25045.05008636 -.00000439  00000+0 -27077-5 0  9996
2 57851  53.1598 289.3999 0000254  84.9052 275.1978 15.30201883 80825
STARLINK-30431          
1 57852U 23141N   25045.07321141 -.00002024  00000+0 -56260-4 0  9995
2 57852  53.1587 288.8905 0001235  53.4489 306.6625 15.30182045 80849
STARLINK-30404          
1 57853U 23141P   25045.06897479 -.00000467  00000+0 -36745-5 0  9993
2 57853  53.1590 288.8583 0000478  26.4869 333.6156 15.30202082 80838
STARLINK-30412          
1 57854U 23141Q   25045.07953164 -.00000392  00000+0 -11139-5 0  9996
2 57854  53.1606 288.9218 0000943  86.7633 273.3475 15.30208460 80838
STARLINK-30392          
1 57855U 23141R   25044.94573208 -.00000987  00000+0 -21186-4 0  9991
2 57855  53.1587 289.5101 0001211  83.7662 276.3477 15.30205467 80832
STARLINK-30291          
1 57856U 23141S   25044.96895144  .00005190  00000+0  18736-3 0  9995
2 57856  53.1609 289.6553 0001220 100.8164 259.2974 15.30178744 80815
STARLINK-30424          
1 57857U 23141T   25044.37551163  .00032973  00000+0  78012-3 0  9993
2 57857  53.1587 276.3282 0004237 172.4777 187.6293 15.41521608 80944
STARLINK-30290          
1 57858U 23141U   25044.95523023  .00000639  00000+0  33700-4 0  9992
2 57858  53.1608 289.5659 0001246  83.5223 276.5919 15.30195512 80816
STARLINK-30414          
1 57859U 23141V   25045.08268748  .00002760  00000+0  10522-3 0  9991
2 57859  53.1606 288.9467 0000944  49.3616 310.7467 15.30216698 80835
STARLINK-30272          
1 57860U 23141W   25044.71086212  .00001380  00000+0  58731-4 0  9998
2 57860  53.1598 290.8865 0000797 116.0663 244.0420 15.30191495 80779
STARLINK-30432          
1 57864U 23144A   25044.51500703  .00000971  00000+0  86936-4 0  9992
2 57864  43.0013 242.5782 0001115 269.8185  90.2530 15.02532845 79022
STARLINK-30427          
1 57865U 23144B   25044.91054386  .00000873  00000+0  79689-4 0  9996
2 57865  43.0023 240.3851 0001290 267.4582  92.6113 15.02535147 79083
STARLINK-30393          
1 57866U 23144C   25044.92041389  .00000708  00000+0  67498-4 0  9999
2 57866  43.0014 239.5983 0001187 263.9895  96.0812 15.02536176 79091
STARLINK-30439          
1 57867U 23144D   25044.90721398  .00000574  00000+0  57524-4 0  9993
2 57867  43.0018 240.3595 0001041 262.2822  97.7903 15.02532051 79138
STARLINK-30442          
1 57868U 23144E   25044.97035872  .00001099  00000+0  96453-4 0  9993
2 57868  43.0014 239.9300 0001277 264.1305  95.9392 15.02524680 79086
STARLINK-30441          
1 57869U 23144F   25044.85071222  .00000497  00000+0  51906-4 0  9995
2 57869  42.9987 240.7512 0002932 298.8979  61.1569 15.02543846 79074
STARLINK-30460          
1 57870U 23144G   25044.56817404  .00001952  00000+0  15951-3 0  9991
2 57870  43.0023 242.1133 0001239 273.1672  86.9029 15.02540009 79084
STARLINK-30444          
1 57871U 23144H   25044.96038732  .00005764  00000+0  44159-3 0  9992
2 57871  43.0011 239.8957 0002013 233.0003 127.0656 15.02517625 78814
STARLINK-30446          
1 57872U 23144J   25044.85422453  .00000163  00000+0  27170-4 0  9991
2 57872  43.0012 227.1798 0001279 269.2694  90.8002 15.02537575 78963
STARLINK-30445          
1 57873U 23144K   25044.56483381  .00000771  00000+0  72135-4 0  9993
2 57873  43.0020 242.0938 0001257 273.9899  86.0800 15.02537873 79033
STARLINK-30447          
1 57874U 23144L   25044.86453122  .00001153  00000+0  10045-3 0  9993
2 57874  43.0035 214.7694 0002461 280.3057  79.7508 15.02542109 79415
STARLINK-30434          
1 57875U 23144M   25044.55484687  .00000828  00000+0  76356-4 0  9996
2 57875  43.0010 242.0144 0001167 268.7854  91.2854 15.02533919 79085
STARLINK-30429          
1 57876U 23144N   25044.88390404  .00001536  00000+0  12876-3 0  9999
2 57876  43.0013 240.1846 0001133 268.4171  91.6542 15.02536297 79124
STARLINK-30284          
1 57877U 23144P   25044.87479786 -.00000413  00000+0 -15523-4 0  9998
2 57877  43.0025 201.8735 0000762 277.5674  82.5082 15.02542873 79579
STARLINK-30433          
1 57878U 23144Q   25044.54818409  .00001199  00000+0  10379-3 0  9995
2 57878  43.0011 241.9646 0001209 272.5753  87.4951 15.02533365 79082
STARLINK-30358          
1 57879U 23144R   25044.94482435 -.00004048  00000+0 -28451-3 0  9994
2 57879  43.0031 239.7795 0001899 248.5750 111.4890 15.02564517 79139
STARLINK-30436          
1 57880U 23144S   25044.93707083 -.00000644  00000+0 -32598-4 0  9990
2 57880  43.0027 239.7210 0001585 255.9443 104.1223 15.02558768 79142
STARLINK-30339          
1 57882U 23144U   25044.86725364  .00001347  00000+0  11475-3 0  9995
2 57882  43.0014 240.0577 0001304 266.6861  93.3832 15.02535649 79130
STARLINK-30282          
1 57883U 23144V   25044.92817722  .00001553  00000+0  13007-3 0  9995
2 57883  43.0012 239.6540 0001925 265.2448  94.8174 15.02513315 79140
STARLINK-30340          
1 57884U 23144W   25044.92373792  .00001691  00000+0  14016-3 0  9994
2 57884  43.0011 239.6140 0001188 272.4277  87.6429 15.02541935 79138
STARLINK-30279          
1 57885U 23144X   25044.86059318 -.00000455  00000+0 -18625-4 0  9993
2 57885  43.0030 240.0058 0001409 260.4480  99.6203 15.02538251 79065
STARLINK-30465          
1 57891U 23146A   25044.99640946  .00001578  00000+0  13181-3 0  9995
2 57891  43.0030 265.6603 0001206 273.6561  86.4143 15.02539754 78494
STARLINK-30470          
1 57892U 23146B   25044.86012557  .00001274  00000+0  10934-3 0  9999
2 57892  43.0027 266.3576 0001126 267.4271  92.6442 15.02536933 78574
STARLINK-30473          
1 57893U 23146C   25044.30499170  .00002227  00000+0  17987-3 0  9993
2 57893  43.0024 269.0160 0001050 267.8494  92.2228 15.02537873 78491
STARLINK-30443          
1 57894U 23146D   25044.85346702  .00004494  00000+0  34747-3 0  9997
2 57894  43.0007 266.3070 0000938 276.1569  83.9166 15.02543431 78577
STARLINK-30467          
1 57895U 23146E   25044.98975533  .00001776  00000+0  14646-3 0  9998
2 57895  43.0022 265.6093 0001281 274.9852  85.0844 15.02550765 78490
STARLINK-30469          
1 57896U 23146F   25044.31831546  .00000603  00000+0  59717-4 0  9998
2 57896  43.0026 269.1725 0001558 269.1389  90.9275 15.02534293 78495
STARLINK-30474          
1 57897U 23146G   25044.97755082  .00006409  00000+0  48930-3 0  9995
2 57897  42.9986 265.5251 0001973 259.3383 100.7238 15.02520375 78494
STARLINK-30479          
1 57898U 23146H   25044.31165669  .00000837  00000+0  77016-4 0  9997
2 57898  43.0028 269.1218 0001325 263.7400  96.3291 15.02537649 78498
STARLINK-30481          
1 57899U 23146J   25044.30832582  .00001831  00000+0  15060-3 0  9997
2 57899  43.0030 269.0965 0001304 261.5382  98.5313 15.02532931 78490
STARLINK-30457          
1 57900U 23146K   25044.95758116 -.00000637  00000+0 -32135-4 0  9999
2 57900  42.9996 265.3777 0001171 289.2742  70.7974 15.02523601 78388
STARLINK-30472          
1 57901U 23146L   25045.00628038 -.00000605  00000+0 -29671-4 0  9992
2 57901  43.0031 264.8704 0001736 284.2233  75.8417 15.02543883 78553
STARLINK-30462          
1 57902U 23146M   25044.96644282  .00001248  00000+0  10743-3 0  9997
2 57902  43.0036 265.4334 0001158 278.8983  81.1728 15.02537394 78492
STARLINK-30449          
1 57903U 23146N   25045.00297261  .00002170  00000+0  17566-3 0  9990
2 57903  43.0024 264.8456 0001921 262.5623  97.5001 15.02537181 78496
STARLINK-30466          
1 57904U 23146P   25044.96311679  .00000912  00000+0  82596-4 0  9993
2 57904  43.0028 265.4091 0001401 262.3500  97.7184 15.02535670 78493
STARLINK-30451          
1 57905U 23146Q   25044.99962077  .00001745  00000+0  14426-3 0  9992
2 57905  43.0024 264.8197 0001432 276.3114  83.7565 15.02530758 78546
STARLINK-30428          
1 57906U 23146R   25044.95982015 -.00002541  00000+0 -17314-3 0  9999
2 57906  43.0022 265.3887 0001309 352.2675   7.8147 15.02523839 78327
STARLINK-30482          
1 57907U 23146S   25044.95644577 -.00008891  00000+0 -64336-3 0  9998
2 57907  43.0040 265.3584 0001724 207.5186 152.5565 15.02569021 78170
STARLINK-30464          
1 57908U 23146T   25045.01627486  .00000937  00000+0  84425-4 0  9990
2 57908  43.0029 264.9482 0001301 257.3184 102.7512 15.02536108 78496
STARLINK-30463          
1 57909U 23146U   25045.01960747  .00000540  00000+0  55067-4 0  9991
2 57909  43.0027 264.9735 0001192 272.7545  87.3160 15.02533431 78556
STARLINK-30453          
1 57910U 23146V   25044.94646730 -.00000421  00000+0 -16105-4 0  9997
2 57910  43.0032 265.2852 0001277 258.2359 101.8340 15.02535526 77530
STARLINK-30478          
1 57911U 23146W   25044.33375342  .00000801  00000+0  74386-4 0  9994
2 57911  43.0043 268.4230 0001400 259.9194 100.1490 15.02531041 78505
STARLINK-30477          
1 57912U 23146X   25044.34483282  .00001079  00000+0  94954-4 0  9990
2 57912  43.0042 268.5109 0001512 262.3615  97.7055 15.02538055 78501
STARLINK-30450          
1 57913U 23147A   25044.06544848  .00000189  00000+0  29092-4 0  9999
2 57913  43.0031 283.5721 0001288 263.2675  96.8021 15.02533680 77975
STARLINK-30483          
1 57914U 23147B   25044.76858316  .00002382  00000+0  10086-3 0  9994
2 57914  43.0017 213.8869 0001236 273.5896  86.4813 15.25914822 78859
STARLINK-30454          
1 57915U 23147C   25044.98947322  .00002789  00000+0  22146-3 0  9996
2 57915  43.0024 278.4650 0001121 275.8631  84.2083 15.02535969 78039
STARLINK-30501          
1 57917U 23147E   25045.05262217 -.00003753  00000+0 -26291-3 0  9999
2 57917  43.0035 278.0772 0001372 276.2641  83.8045 15.02537195 78168
STARLINK-30499          
1 57918U 23147F   25044.84818499 -.00000761  00000+0 -18116-4 0  9999
2 57918  43.0021 216.1819 0001974 260.0419 100.0210 15.27582189 78864
